H1 CPF 01  gfz 2021 06 11 12  6622 tandemx   
H2 1003001  6202 36605    2021 06 11 12 59 42 2021 06 16 00 00 42   120 1 1  0 0 0
H9
10 0 59377  76302.000000  0   -3520952.851   4581930.245  -3758670.881
10 0 59377  76422.000000  0   -3043330.560   4266256.737  -4479253.693
10 0 59377  76542.000000  0   -2519035.691   3867625.304  -5121388.345
10 0 59377  76662.000000  0   -1958629.201   3392316.701  -5673925.511
10 0 59377  76782.000000  0   -1373153.629   2848112.483  -6127298.334
10 0 59377  76902.000000  0    -773915.191   2244161.047  -6473677.562
10 0 59377  77022.000000  0    -172267.363   1590820.182  -6707094.586
10 0 59377  77142.000000  0     420599.895    899479.037  -6823533.737
10 0 59377  77262.000000  0     993862.897    182362.425  -6820994.626
10 0 59377  77382.000000  0    1537257.961   -547681.390  -6699523.011
10 0 59377  77502.000000  0    2041260.319  -1277405.573  -6461208.448
10 0 59377  77622.000000  0    2497247.418  -1993398.597  -6110152.464
10 0 59377  77742.000000  0    2897644.983  -2682324.565  -5652405.886
10 0 59377  77862.000000  0    3236054.240  -3331169.118  -5095876.854
10 0 59377  77982.000000  0    3507357.616  -3927486.505  -4450203.979
10 0 59377  78102.000000  0    3707798.382  -4459639.186  -3726598.957
10 0 59377  78222.000000  0    3835035.826  -4917028.589  -2937662.461
10 0 59377  78342.000000  0    3888174.559  -5290313.333  -2097171.997
10 0 59377  78462.000000  0    3867763.940  -5571607.798  -1219843.083
10 0 59377  78582.000000  0    3775768.596  -5754654.583   -321070.236
10 0 59377  78702.000000  0    3615509.470  -5834967.436    583348.599
10 0 59377  78822.000000  0    3391576.642  -5809939.785   1477496.719
10 0 59377  78942.000000  0    3109716.835  -5678916.028   2345628.657
10 0 59377  79062.000000  0    2776696.065  -5443221.396   3172456.402
10 0 59377  79182.000000  0    2400142.942  -5106153.019   3943424.947
10 0 59377  79302.000000  0    1988377.575  -4672931.676   4644973.286
10 0 59377  79422.000000  0    1550228.933  -4150614.864   5264775.295
10 0 59377  79542.000000  0    1094846.429  -3547974.319   5791956.115
10 0 59377  79662.000000  0     631507.827  -2875339.758   6217280.005
10 0 59377  79782.000000  0     169430.057  -2144414.706   6533305.339
10 0 59377  79902.000000  0    -282413.095  -1368068.491   6734507.818
10 0 59377  80022.000000  0    -715463.857   -560107.954   6817372.313
10 0 59377  80142.000000  0   -1121741.415    264969.624   6780451.129
10 0 59377  80262.000000  0   -1493988.474   1092236.670   6624387.445
10 0 59377  80382.000000  0   -1825800.533   1906604.633   6351904.561
10 0 59377  80502.000000  0   -2111736.671   2693098.524   5967761.507
10 0 59377  80622.000000  0   -2347409.530   3437133.000   5478674.721
10 0 59377  80742.000000  0   -2529553.475   4124785.054   4893207.207
10 0 59377  80862.000000  0   -2656070.556   4743059.922   4221625.092
10 0 59377  80982.000000  0   -2726051.937   5280143.916   3475721.967
10 0 59377  81102.000000  0   -2739774.322   5725638.487   2668613.218
10 0 59377  81222.000000  0   -2698671.236   6070769.288   1814504.377
10 0 59377  81342.000000  0   -2605280.114   6308566.140    928437.615
10 0 59377  81462.000000  0   -2463165.570   6434009.034     26020.854
10 0 59377  81582.000000  0   -2276821.348   6444136.317   -876855.186
10 0 59377  81702.000000  0   -2051553.510   6338112.292  -1764307.127
10 0 59377  81822.000000  0   -1793345.825   6117248.329  -2620749.835
10 0 59377  81942.000000  0   -1508712.367   5784978.904  -3431174.797
10 0 59377  82062.000000  0   -1204543.206   5346799.007  -4181414.413
10 0 59377  82182.000000  0    -887945.957   4810161.373  -4858388.555
10 0 59377  82302.000000  0    -566086.932   4184338.383  -5450327.012
10 0 59377  82422.000000  0    -246035.164   3480252.217  -5946967.003
10 0 59377  82542.000000  0      65387.506   2710275.345  -6339721.680
10 0 59377  82662.000000  0     361746.234   1888007.337  -6621816.367
10 0 59377  82782.000000  0     637120.703   1028034.410  -6788394.574
10 0 59377  82902.000000  0     886219.113    145672.828  -6836593.181
10 0 59377  83022.000000  0    1104476.382   -743299.208  -6765586.009
10 0 59377  83142.000000  0    1288135.098  -1622917.465  -6576594.906
10 0 59377  83262.000000  0    1434308.562  -2477309.993  -6272870.395
10 0 59377  83382.000000  0    1541026.189  -3290976.586  -5859643.357
10 0 59377  83502.000000  0    1607259.161  -4049068.034  -5344045.715
10 0 59377  83622.000000  0    1632926.110  -4737658.153  -4734996.981
10 0 59377  83742.000000  0    1618879.542  -5344001.875  -4043060.904
10 0 59377  83862.000000  0    1566871.954  -5856778.957  -3280273.376
10 0 59377  83982.000000  0    1479501.464  -6266315.712  -2459940.411
10 0 59377  84102.000000  0    1360139.569  -6564778.984  -1596410.057
10 0 59377  84222.000000  0    1212841.619  -6746337.730   -704821.782
10 0 59377  84342.000000  0    1042240.614  -6807287.665    199162.555
10 0 59377  84462.000000  0     853429.194  -6746133.770   1099640.147
10 0 59377  84582.000000  0     651830.820  -6563629.752   1980755.126
10 0 59377  84702.000000  0     443064.824  -6262771.856   2826987.966
10 0 59377  84822.000000  0     232807.445  -5848745.354   3623438.012
10 0 59377  84942.000000  0      26652.487  -5328827.385   4356090.864
10 0 59377  85062.000000  0    -170023.630  -4712250.794   5012067.890
10 0 59377  85182.000000  0    -352189.645  -4010029.996   5579853.066
10 0 59377  85302.000000  0    -515276.666  -3234754.565   6049493.354
10 0 59377  85422.000000  0    -655282.972  -2400353.531   6412768.348
10 0 59377  85542.000000  0    -768864.087  -1521839.382   6663326.145
10 0 59377  85662.000000  0    -853406.550   -615036.012   6796788.849
10 0 59377  85782.000000  0    -907084.619    303707.775   6810825.634
10 0 59377  85902.000000  0    -928898.286   1217813.323   6705190.954
10 0 59377  86022.000000  0    -918691.359   2110770.860   6481728.414
10 0 59377  86142.000000  0    -877150.238   2966437.221   6144340.561
10 0 59377  86262.000000  0    -805783.744   3769328.479   5698925.183
10 0 59377  86382.000000  0    -706883.784   4504903.017   5153277.321
10 0 59378    102.000000  0    -583467.636   5159829.816   4516959.433
10 0 59378    222.000000  0    -439203.061   5722238.869   3801138.363
10 0 59378    342.000000  0    -278316.854   6181943.276   3018392.697
10 0 59378    462.000000  0    -105491.199   6530636.715   2182495.122
10 0 59378    582.000000  0      74253.452   6762054.624   1308164.027
10 0 59378    702.000000  0     255685.115   6872092.626    410798.795
10 0 59378    822.000000  0     433492.316   6858884.143   -493798.608
10 0 59378    942.000000  0     602419.013   6722832.558  -1389711.418
10 0 59378   1062.000000  0     757396.808   6466596.321  -2261196.754
10 0 59378   1182.000000  0     893672.213   6095030.018  -3092968.659
10 0 59378   1302.000000  0    1006926.901   5615082.753  -3870470.294
10 0 59378   1422.000000  0    1093387.496   5035656.476  -4580129.846
10 0 59378   1542.000000  0    1149922.277   4367428.218  -5209594.628
10 0 59378   1662.000000  0    1174122.666   3622641.914  -5747939.065
10 0 59378   1782.000000  0    1164367.496   2814875.522  -6185845.337
10 0 59378   1902.000000  0    1119869.435   1958787.103  -6515753.378
10 0 59378   2022.000000  0    1040702.790   1069847.830  -6731979.155
10 0 59378   2142.000000  0     927812.523    164064.899  -6830803.555
10 0 59378   2262.000000  0     783004.610   -742302.255  -6810529.213
10 0 59378   2382.000000  0     608917.187  -1633027.480  -6671505.073
10 0 59378   2502.000000  0     408974.005  -2492199.653  -6416120.028
10 0 59378   2622.000000  0     187320.257  -3304500.036  -6048768.698
10 0 59378   2742.000000  0     -51259.428  -4055473.289  -5575783.998
10 0 59378   2862.000000  0    -301437.714  -4731783.974  -5005337.862
10 0 59378   2982.000000  0    -557455.931  -5321457.054  -4347311.998
10 0 59378   3102.000000  0    -813248.489  -5814097.726  -3613137.653
10 0 59378   3222.000000  0   -1062577.499  -6201085.087  -2815605.606
10 0 59378   3342.000000  0   -1299174.853  -6475735.034  -1968649.442
10 0 59378   3462.000000  0   -1516888.790  -6633429.111  -1087104.190
10 0 59378   3582.000000  0   -1709830.945  -6671703.780   -186443.987
10 0 59378   3702.000000  0   -1872520.478  -6590297.157    717495.107
10 0 59378   3822.000000  0   -2000021.843  -6391151.759   1608801.270
10 0 59378   3942.000000  0   -2088072.150  -6078372.648   2471776.139
10 0 59378   4062.000000  0   -2133194.449  -5658141.454   3291220.444
10 0 59378   4182.000000  0   -2132793.815  -5138588.647   4052708.841
10 0 59378   4302.000000  0   -2085234.142  -4529628.498   4742848.048
10 0 59378   4422.000000  0   -1989894.509  -3842761.758   5349513.873
10 0 59378   4542.000000  0   -1847203.920  -3090849.092   5862064.080
10 0 59378   4662.000000  0   -1658652.178  -2287861.247   6271520.689
10 0 59378   4782.000000  0   -1426777.818  -1448614.312   6570721.058
10 0 59378   4902.000000  0   -1155134.670   -588492.784   6754437.785
10 0 59378   5022.000000  0    -848237.774    276834.704   6819463.584
10 0 59378   5142.000000  0    -511488.603   1131699.820   6764663.805
10 0 59378   5262.000000  0    -151079.825   1960717.964   6590995.633
10 0 59378   5382.000000  0     226118.500   2749065.014   6301492.253
10 0 59378   5502.000000  0     612688.955   3482742.407   5901212.904
10 0 59378   5622.000000  0    1000810.800   4148828.090   5397159.937
10 0 59378   5742.000000  0    1382416.288   4735708.546   4798162.139
10 0 59378   5862.000000  0    1749356.458   5233288.170   4114725.415
10 0 59378   5982.000000  0    2093573.122   5633169.940   3358853.370
10 0 59378   6102.000000  0    2407274.579   5928807.254   2543839.882
10 0 59378   6222.000000  0    2683108.306   6115620.731   1684032.163
10 0 59378   6342.000000  0    2914329.000   6191074.294    794572.629
99
